{
  "norad_id": 47361,
  "name": "STARLINK-2071",
  "history": [
    {
      "epoch": "2026-03-28T21:29:16.581984",
      "apogee_km": 548.1386675447739,
      "perigee_km": 546.2430668009711,
      "latitude_deg": -52.96185641094425,
      "longitude_deg": 82.0517577601131,
      "semi_major_axis_km": 6925.327867172872,
      "eccentricity": 0.00013686,
      "inclination_deg": 53.0543,
      "raan_deg": 305.3997,
      "arg_perigee_deg": 83.4759,
      "mean_anomaly_deg": 276.6386,
      "mean_motion_rev_day": 15.06406751
    }
  ]
}